{
  "type": "FeatureCollection",
  "features": [
    {
      "type": "Feature",
      "properties": {
        "norad_id": 15362,
        "name": "NOVA 3",
        "group": "nnss",
        "lat": 45.54430472153945,
        "lon": -99.22052665718404,
        "alt_km": 1191.3378458466677,
        "timestamp": "2025-12-22T23:36:20.981871+00:00",
        "meta_object_name": "NOVA 3",
        "meta_object_id": "1984-110A",
        "meta_epoch": "2025-12-22T06:53:41.383392",
        "meta_mean_motion": 13.23045723,
        "meta_eccentricity": 0.00299536,
        "meta_inclination": 90.1219,
        "meta_ra_of_asc_node": 80.647,
        "meta_arg_of_pericenter": 304.4624,
        "meta_mean_anomaly": 115.4974,
        "meta_ephemeris_type": 0,
        "meta_classification_type": "U",
        "meta_norad_cat_id": 15362,
        "meta_element_set_no": 999,
        "meta_rev_at_epoch": 98825,
        "meta_bstar": 0.0002233324,
        "meta_mean_motion_dot": 1.02e-06,
        "meta_mean_motion_ddot": 0,
        "tle_line1": "1 15362U 84110A   25356.28728453  .00000102  00000+0  22333-3 0  9999",
        "tle_line2": "2 15362  90.1219  80.6470 0029953 304.4624 115.4974 13.23045723988250"
      },
      "geometry": {
        "type": "Point",
        "coordinates": [
          -99.22052665718404,
          45.54430472153945
        ]
      }
    },
    {
      "type": "Feature",
      "properties": {
        "norad_id": 15935,
        "name": "OSCAR 30",
        "group": "nnss",
        "lat": -26.80006651389378,
        "lon": 100.09819059560529,
        "alt_km": 1109.8179322402793,
        "timestamp": "2025-12-22T23:36:20.981882+00:00",
        "meta_object_name": "OSCAR 30",
        "meta_object_id": "1985-066A",
        "meta_epoch": "2025-12-22T13:00:22.498848",
        "meta_mean_motion": 13.36079837,
        "meta_eccentricity": 0.01690546,
        "meta_inclination": 90.1654,
        "meta_ra_of_asc_node": 100.0074,
        "meta_arg_of_pericenter": 56.5253,
        "meta_mean_anomaly": 315.6602,
        "meta_ephemeris_type": 0,
        "meta_classification_type": "U",
        "meta_norad_cat_id": 15935,
        "meta_element_set_no": 999,
        "meta_rev_at_epoch": 96584,
        "meta_bstar": 0.00017055063,
        "meta_mean_motion_dot": 1.05e-06,
        "meta_mean_motion_ddot": 0,
        "tle_line1": "1 15935U 85066A   25356.54192707  .00000105  00000+0  17055-3 0  9990",
        "tle_line2": "2 15935  90.1654 100.0074 0169054  56.5253 315.6602 13.36079837965845"
      },
      "geometry": {
        "type": "Point",
        "coordinates": [
          100.09819059560529,
          -26.80006651389378
        ]
      }
    },
    {
      "type": "Feature",
      "properties": {
        "norad_id": 15936,
        "name": "OSCAR 24",
        "group": "nnss",
        "lat": 44.67099310370134,
        "lon": 92.30939767869073,
        "alt_km": 998.3246303725118,
        "timestamp": "2025-12-22T23:36:20.981892+00:00",
        "meta_object_name": "OSCAR 24",
        "meta_object_id": "1985-066B",
        "meta_epoch": "2025-12-22T05:41:31.379136",
        "meta_mean_motion": 13.359371,
        "meta_eccentricity": 0.01702147,
        "meta_inclination": 90.1791,
        "meta_ra_of_asc_node": 92.4734,
        "meta_arg_of_pericenter": 63.8209,
        "meta_mean_anomaly": 353.8432,
        "meta_ephemeris_type": 0,
        "meta_classification_type": "U",
        "meta_norad_cat_id": 15936,
        "meta_element_set_no": 999,
        "meta_rev_at_epoch": 96770,
        "meta_bstar": 0.00016124907,
        "meta_mean_motion_dot": 9.9e-07,
        "meta_mean_motion_ddot": 0,
        "tle_line1": "1 15936U 85066B   25356.23716874  .00000099  00000+0  16125-3 0  9993",
        "tle_line2": "2 15936  90.1791  92.4734 0170214  63.8209 353.8432 13.35937100967704"
      },
      "geometry": {
        "type": "Point",
        "coordinates": [
          92.30939767869073,
          44.67099310370134
        ]
      }
    },
    {
      "type": "Feature",
      "properties": {
        "norad_id": 17070,
        "name": "POLAR BEAR",
        "group": "nnss",
        "lat": -69.41427604692521,
        "lon": 4.383899704276067,
        "alt_km": 1016.632258378926,
        "timestamp": "2025-12-22T23:36:20.981903+00:00",
        "meta_object_name": "POLAR BEAR",
        "meta_object_id": "1986-088A",
        "meta_epoch": "2025-12-22T12:13:24.155040",
        "meta_mean_motion": 13.75252822,
        "meta_eccentricity": 0.00412914,
        "meta_inclination": 89.617,
        "meta_ra_of_asc_node": 183.3826,
        "meta_arg_of_pericenter": 91.1459,
        "meta_mean_anomaly": 331.4308,
        "meta_ephemeris_type": 0,
        "meta_classification_type": "U",
        "meta_norad_cat_id": 17070,
        "meta_element_set_no": 999,
        "meta_rev_at_epoch": 96113,
        "meta_bstar": 9.9389854e-05,
        "meta_mean_motion_dot": 1.07e-06,
        "meta_mean_motion_ddot": 0,
        "tle_line1": "1 17070U 86088A   25356.50930735  .00000107  00000+0  99390-4 0  9999",
        "tle_line2": "2 17070  89.6170 183.3826 0041291  91.1459 331.4308 13.75252822961134"
      },
      "geometry": {
        "type": "Point",
        "coordinates": [
          4.383899704276067,
          -69.41427604692521
        ]
      }
    },
    {
      "type": "Feature",
      "properties": {
        "norad_id": 18361,
        "name": "OSCAR 27",
        "group": "nnss",
        "lat": 71.9606083828714,
        "lon": -99.19605824253912,
        "alt_km": 1078.4032548030827,
        "timestamp": "2025-12-22T23:36:20.981914+00:00",
        "meta_object_name": "OSCAR 27",
        "meta_object_id": "1987-080A",
        "meta_epoch": "2025-12-22T03:25:18.934464",
        "meta_mean_motion": 13.44908544,
        "meta_eccentricity": 0.01036926,
        "meta_inclination": 90.3738,
        "meta_ra_of_asc_node": 79.624,
        "meta_arg_of_pericenter": 196.6975,
        "meta_mean_anomaly": 163.075,
        "meta_ephemeris_type": 0,
        "meta_classification_type": "U",
        "meta_norad_cat_id": 18361,
        "meta_element_set_no": 999,
        "meta_rev_at_epoch": 87683,
        "meta_bstar": 0.00017610414,
        "meta_mean_motion_dot": 1.15e-06,
        "meta_mean_motion_ddot": 0,
        "tle_line1": "1 18361U 87080A   25356.14258026  .00000115  00000+0  17610-3 0  9995",
        "tle_line2": "2 18361  90.3738  79.6240 0103692 196.6975 163.0750 13.44908544876839"
      },
      "geometry": {
        "type": "Point",
        "coordinates": [
          -99.19605824253912,
          71.9606083828714
        ]
      }
    },
    {
      "type": "Feature",
      "properties": {
        "norad_id": 18362,
        "name": "OSCAR 29",
        "group": "nnss",
        "lat": 76.56583943364198,
        "lon": -98.31428223445603,
        "alt_km": 1116.8545650538217,
        "timestamp": "2025-12-22T23:36:20.981925+00:00",
        "meta_object_name": "OSCAR 29",
        "meta_object_id": "1987-080B",
        "meta_epoch": "2025-12-22T05:21:48.494016",
        "meta_mean_motion": 13.44450163,
        "meta_eccentricity": 0.01045285,
        "meta_inclination": 90.3749,
        "meta_ra_of_asc_node": 80.0866,
        "meta_arg_of_pericenter": 219.69,
        "meta_mean_anomaly": 168.0965,
        "meta_ephemeris_type": 0,
        "meta_classification_type": "U",
        "meta_norad_cat_id": 18362,
        "meta_element_set_no": 999,
        "meta_rev_at_epoch": 87637,
        "meta_bstar": 0.00018133307,
        "meta_mean_motion_dot": 1.17e-06,
        "meta_mean_motion_ddot": 0,
        "tle_line1": "1 18362U 87080B   25356.22347794  .00000117  00000+0  18133-3 0  9999",
        "tle_line2": "2 18362  90.3749  80.0866 0104528 219.6900 168.0965 13.44450163876376"
      },
      "geometry": {
        "type": "Point",
        "coordinates": [
          -98.31428223445603,
          76.56583943364198
        ]
      }
    },
    {
      "type": "Feature",
      "properties": {
        "norad_id": 19070,
        "name": "OSCAR 23",
        "group": "nnss",
        "lat": -14.398456531422909,
        "lon": 16.792170830538787,
        "alt_km": 1298.5577249919825,
        "timestamp": "2025-12-22T23:36:20.981935+00:00",
        "meta_object_name": "OSCAR 23",
        "meta_object_id": "1988-033A",
        "meta_epoch": "2025-12-22T13:40:27.772032",
        "meta_mean_motion": 13.27788733,
        "meta_eccentricity": 0.01903201,
        "meta_inclination": 90.3204,
        "meta_ra_of_asc_node": 16.697,
        "meta_arg_of_pericenter": 152.6434,
        "meta_mean_anomaly": 16.7349,
        "meta_ephemeris_type": 0,
        "meta_classification_type": "U",
        "meta_norad_cat_id": 19070,
        "meta_element_set_no": 999,
        "meta_rev_at_epoch": 82383,
        "meta_bstar": 0.0001389273,
        "meta_mean_motion_dot": 7.9e-07,
        "meta_mean_motion_ddot": 0,
        "tle_line1": "1 19070U 88033A   25356.56976588  .00000079  00000+0  13893-3 0  9996",
        "tle_line2": "2 19070  90.3204  16.6970 0190320 152.6434  16.7349 13.27788733823839"
      },
      "geometry": {
        "type": "Point",
        "coordinates": [
          16.792170830538787,
          -14.398456531422909
        ]
      }
    }
  ]
}